PROBA-1                 
1 26958U 01049B   26062.18391594  .00002011  00000+0  13415-3 0  9990
2 26958  97.9622  67.0378 0057044 120.3799 240.3084 15.06979529327656
CUTE-1 (CO-55)          
1 27844U 03031E   26061.96016478  .00000415  00000+0  19885-3 0  9991
2 27844  98.6778  71.8426 0010458 130.0831 230.1266 14.24259384176550
CUBESAT XI-IV (CO-57)   
1 27848U 03031J   26061.96597561  .00000349  00000+0  17234-3 0  9994
2 27848  98.6808  71.6462 0010091 146.6500 213.5316 14.23555571176260
APRIZESAT 4             
1 35684U 09041D   26062.18062276  .00001031  00000+0  12998-3 0  9994
2 35684  98.1499 135.3688 0042311 306.4253  53.3062 14.83693098895648
APRIZESAT 3             
1 35686U 09041F   26061.95526449  .00002857  00000+0  25136-3 0  9992
2 35686  98.1882 210.2122 0063225  58.7086 302.0304 14.95865535900493
PROBA-2                 
1 36037U 09059B   26062.11735304  .00000367  00000+0  96033-4 0  9992
2 36037  98.2426 246.9424 0012093 246.1125 113.8806 14.54785415866101
APRIZESAT 5             
1 37792U 11044E   26061.79598053  .00001841  00000+0  24071-3 0  9999
2 37792  98.2401 351.8789 0052252 346.8979  13.0872 14.80829959783045
APRIZESAT 6             
1 37793U 11044F   26061.70533803  .00001149  00000+0  16931-3 0  9990
2 37793  98.2424 330.0133 0044532  67.2556 346.7978 14.76733859781432
PROBA-V                 
1 39159U 13021A   26061.91802132  .00000087  00000+0  56393-4 0  9999
2 39159  98.3495  45.8231 0005382  85.3518 274.8276 14.23571497665992
APRIZESAT 7             
1 39416U 13066A   26061.88117962  .00001972  00000+0  20166-3 0  9992
2 39416  97.7587  16.7287 0035282 201.5617 158.4118 14.91254208665383
APRIZESAT 8             
1 39425U 13066K   26061.92735978  .00001690  00000+0  18979-3 0  9996
2 39425  97.8109  10.9696 0044605 276.0047  83.6087 14.87398939663878
BUGSAT-1 (TITA)         
1 40014U 14033E   26062.22937122  .00007761  00000+0  42236-3 0  9994
2 40014  98.0449 148.6867 0028928 180.2095 179.9128 15.14396231639795
SAUDISAT 4              
1 40016U 14033G   26061.93443309  .00001040  00000+0  14388-3 0  9993
2 40016  97.7398 211.8519 0046090  60.2096 300.3688 14.79374136630366
APRIZESAT 9             
1 40018U 14033J   26062.18387731  .00001292  00000+0  19724-3 0  9997
2 40018  97.8869 198.0894 0066387 180.0089 180.1130 14.74054906627949
APRIZESAT 10            
1 40019U 14033K   26061.93164360  .00000949  00000+0  15700-3 0  9999
2 40019  97.9468 191.3759 0077724 252.8007 106.4681 14.70736675626630
TECHDEMOSAT-1 (TDS-1)   
1 40076U 14037H   26061.90506637  .00012423  00000+0  73946-3 0  9996
2 40076  98.3758  43.7723 0004654 269.0421  91.0273 15.11386629632160
TECHNOSAT               
1 42829U 17042E   26061.97574667  .00004977  00000+0  36086-3 0  9997
2 42829  97.4141 223.8060 0019585  96.7816 263.5640 15.04213177470737
FLYING LAPTOP           
1 42831U 17042G   26062.17605742  .00002715  00000+0  21952-3 0  9996
2 42831  97.4247 222.1410 0018419 116.4688 243.8429 15.00460179470558
HAWK-A                  
1 43765U 18099H   26062.10681500  .00008793  00000+0  36968-3 0  9990
2 43765  97.4067 115.7610 0034515 299.7650  60.0155 15.23100254396948
HAWK-B                  
1 43794U 18099AN  26062.13722161  .00007866  00000+0  34877-3 0  9991
2 43794  97.4118 115.4183 0031786 317.5166  42.3610 15.21414722396908
HAWK-C                  
1 43799U 18099AT  26062.11675977  .00009749  00000+0  37013-3 0  9993
2 43799  97.4045 116.1843 0040666 301.5332  58.1937 15.26254441397721
SALSAT                  
1 46495U 20068K   26061.92839164  .00011638  00000+0  42811-3 0  9998
2 46495  97.8846  58.6665 0008827 325.0587  35.0071 15.28017587299126
HAWK-2C                 
1 47502U 21006CT  26062.08425720  .00008520  00000+0  26810-3 0  9995
2 47502  97.2428 108.5378 0006237 208.7329 151.3571 15.33166463283232
HAWK-2A                 
1 47505U 21006CW  26062.08784526  .00012497  00000+0  39176-3 0  9997
2 47505  97.2471 109.1559 0005786 211.7478 148.3417 15.33187043283230
HAWK-2B                 
1 47508U 21006CZ  26062.08459733  .00008487  00000+0  26713-3 0  9996
2 47508  97.2344 107.6629 0006386 210.1446 149.9430 15.33157814283233
HAWK-3B                 
1 48931U 21059BE  26062.07656690  .00039685  00000+0  47324-3 0  9990
2 48931  97.6713 249.4151 0005463   3.5004 356.6290 15.60958739261256
HAWK-3C                 
1 48948U 21059BX  26062.07633611  .00041187  00000+0  49115-3 0  9996
2 48948  97.6862 254.9011 0005984   5.1349 354.9967 15.60947705261256
HAWK-3A                 
1 48957U 21059CG  26062.07616457  .00040804  00000+0  48662-3 0  9996
2 48957  97.6797 252.1950 0005580   3.7118 356.4179 15.60950664261255
HAWK-5C                 
1 52754U 22057Y   26061.93406440  .00023459  00000+0  46287-3 0  9996
2 52754  97.6441 215.1844 0005661  98.0337 262.1555 15.47168698209898
HAWK-5B                 
1 52756U 22057AA  26062.12796380  .00024490  00000+0  48289-3 0  9995
2 52756  97.6443 213.7294 0005634  92.1274 268.0620 15.47179165209923
HAWK-5A                 
1 52757U 22057AB  26061.93365479  .00023855  00000+0  47061-3 0  9996
2 52757  97.6442 214.3580 0006040  95.0797 265.1142 15.47167991209899
HAWK-6B                 
1 55324U 23011A   26061.71708272  .00007470  00000+0  33045-3 0  9990
2 55324  40.5117 252.5747 0003124 340.1039  19.9648 15.21791377171617
HAWK-6C                 
1 55326U 23011C   26061.91335455  .00007550  00000+0  33389-3 0  9993
2 55326  40.4815 248.3154 0003453 329.1041  30.9564 15.21787358171651
HAWK-6A                 
1 55327U 23011D   26061.91337227  .00007501  00000+0  33178-3 0  9995
2 55327  40.4969 249.9151 0003160 327.8274  32.2342 15.21790776171651
HAWK-7A                 
1 56191U 23054P   26062.13251339  .00007471  00000+0  29208-3 0  9991
2 56191  97.2850 312.1674 0004545  64.1862 295.9845 15.26128811160840
HAWK-7B                 
1 56193U 23054R   26062.13239282  .00006474  00000+0  25351-3 0  9993
2 56193  97.2882 310.3905 0004011  73.7962 286.3718 15.26129147160845
HAWK-7C                 
1 56200U 23054Y   26062.13225708  .00006652  00000+0  26070-3 0  9997
2 56200  97.2853 311.1944 0004019  65.6701 294.4957 15.26090229160846
